STARLINK-4166           
1 53291U 22086BB  26068.52882057 -.00000249  00000+0  24432-5 0  9992
2 53291  53.2178 179.6310 0001235  84.9193 275.1940 15.08836395201234
2023-069B               
1 56732U 23069B   26068.54706144  .00006772  00000+0  42420-3 0  9992
2 56732  41.0081 274.4606 0011652 279.7432  80.2064 15.09579619155167
